<?xml version="1.0" encoding="UTF-8"?>
<kml xmlns="http://www.opengis.net/kml/2.2">
  <Document>
    <name>Слой без названия</name>
    <Style id="poly-FFFFFF-180-77-nodesc-normal">
      <LineStyle>
        <color>ffffffff</color>
        <width>0.18</width>
      </LineStyle>
      <PolyStyle>
        <color>4dffffff</color>
        <fill>1</fill>
        <outline>1</outline>
      </PolyStyle>
      <BalloonStyle>
        <text><![CDATA[<h3>$[name]</h3>]]></text>
      </BalloonStyle>
    </Style>
    <Style id="poly-FFFFFF-180-77-nodesc-highlight">
      <LineStyle>
        <color>ffffffff</color>
        <width>0.27</width>
      </LineStyle>
      <PolyStyle>
        <color>4dffffff</color>
        <fill>1</fill>
        <outline>1</outline>
      </PolyStyle>
      <BalloonStyle>
        <text><![CDATA[<h3>$[name]</h3>]]></text>
      </BalloonStyle>
    </Style>
    <StyleMap id="poly-FFFFFF-180-77-nodesc">
      <Pair>
        <key>normal</key>
        <styleUrl>#poly-FFFFFF-180-77-nodesc-normal</styleUrl>
      </Pair>
      <Pair>
        <key>highlight</key>
        <styleUrl>#poly-FFFFFF-180-77-nodesc-highlight</styleUrl>
      </Pair>
    </StyleMap>
    
    <Placemark>
      <name>продвижения ВС РФ за 26 - 29 сентября</name>
      <description>ВС РФ</description>
      <styleUrl>#poly-FFFFFF-180-77-nodesc</styleUrl>
      <MultiGeometry>
        <Polygon>
          <outerBoundaryIs>
            <LinearRing>
              <tessellate>1</tessellate>
              <coordinates>
              37.12997752712456,48.41996153966475,0.0 
37.133034,48.419159,0.0 
37.140419,48.417733,0.0 
37.147174,48.417011,0.0 
37.153436,48.41698,0.0 
37.159344,48.41763,0.0 
37.165037,48.418949,0.0 
37.170653,48.420925,0.0 
37.17633,48.423546,0.0 
37.182207,48.4268,0.0 
37.184505,48.428711,0.0 
37.185985,48.431138,0.0 
37.186693,48.433959,0.0 
37.186676,48.437053,0.0 
37.185981,48.440299,0.0 
37.184655,48.443576,0.0 
37.182743,48.446763,0.0 
37.180294,48.449738,0.0 
37.177354,48.45238,0.0 
37.178704,48.449406,0.0 
37.178266,48.446688,0.0 
37.176304,48.44415,0.0 
37.173085,48.441717,0.0 
37.168873,48.439313,0.0 
37.163933,48.436863,0.0 
37.158531,48.434291,0.0 
37.152932,48.431522,0.0 
37.1474,48.42848,0.0 
37.144319,48.426537,0.0 
37.141667,48.424711,0.0 
37.139322,48.423073,0.0 
37.137163,48.421697,0.0 
37.135067,48.420656,0.0 
37.132913,48.420023,0.0 
37.130578,48.41987,0.0 
37.12997752712456,48.41996153966475,0.0 
</coordinates>
            </LinearRing>
          </outerBoundaryIs>
        </Polygon>
        <Polygon>
          <outerBoundaryIs>
            <LinearRing>
              <tessellate>1</tessellate>
              <coordinates>
              37.79385,48.59108,0.0 
37.793008,48.59046,0.0 
37.792373,48.58989,0.0 
37.791886,48.589361,0.0 
37.791483,48.588861,0.0 
37.791103,48.58838,0.0 
37.790685,48.587908,0.0 
37.790166,48.587434,0.0 
37.789485,48.586948,0.0 
37.78858,48.58644,0.0 
37.784245,48.583984,0.0 
37.780545,48.581454,0.0 
37.777325,48.578992,0.0 
37.77443,48.576743,0.0 
37.771705,48.57485,0.0 
37.768994,48.573458,0.0 
37.766143,48.57271,0.0 
37.762997,48.572749,0.0 
37.7594,48.57372,0.0 
37.76465,48.571524,0.0 
37.769208,48.570329,0.0 
37.773318,48.56995,0.0 
37.777221,48.570201,0.0 
37.781159,48.570897,0.0 
37.785376,48.571853,0.0 
37.790113,48.572882,0.0 
37.795614,48.5738,0.0 
37.80212,48.57442,0.0 
37.804109,48.574571,0.0 
37.805708,48.574765,0.0 
37.807026,48.574997,0.0 
37.808174,48.575263,0.0 
37.809265,48.575558,0.0 
37.810409,48.575879,0.0 
37.811717,48.576221,0.0 
37.813301,48.576579,0.0 
37.81527,48.57695,0.0 
37.817734,48.577283,0.0 
37.819872,48.577428,0.0 
37.821749,48.577459,0.0 
37.823432,48.57745,0.0 
37.824985,48.577474,0.0 
37.826474,48.577605,0.0 
37.827964,48.577918,0.0 
37.82952,48.578487,0.0 
37.831208,48.579384,0.0 
37.831872,48.579959,0.0 
37.832342,48.580714,0.0 
37.832621,48.581592,0.0 
37.832714,48.582537,0.0 
37.832623,48.583491,0.0 
37.832353,48.584398,0.0 
37.831906,48.585201,0.0 
37.831287,48.585844,0.0 
37.8305,48.58627,0.0 
37.828337,48.586847,0.0 
37.826418,48.587051,0.0 
37.824649,48.586978,0.0 
37.822941,48.58672,0.0 
37.821201,48.586372,0.0 
37.819338,48.586025,0.0 
37.817261,48.585775,0.0 
37.814878,48.585714,0.0 
37.812098,48.585936,0.0 
37.809097,48.586322,0.0 
37.806302,48.586684,0.0 
37.80373,48.587054,0.0 
37.801397,48.58746,0.0 
37.799317,48.587933,0.0 
37.797507,48.588502,0.0 
37.795982,48.589196,0.0 
37.794757,48.590045,0.0 
37.79385,48.59108,0.0 
</coordinates>
            </LinearRing>
          </outerBoundaryIs>
        </Polygon>
        <Polygon>
          <outerBoundaryIs>
            <LinearRing>
              <tessellate>1</tessellate>
              <coordinates>
              37.453238639353906,50.1907397511006,0.0 
37.45642,50.18225,0.0 
37.458238,50.179365,0.0 
37.460948,50.177311,0.0 
37.464449,50.175999,0.0 
37.468636,50.175337,0.0 
37.473406,50.175237,0.0 
37.478657,50.175609,0.0 
37.484285,50.176363,0.0 
37.490187,50.17741,0.0 
37.49626,50.17866,0.0 
37.511915,50.182481,0.0 
37.524425,50.186364,0.0 
37.534676,50.19028,0.0 
37.543554,50.194201,0.0 
37.551945,50.198096,0.0 
37.560735,50.201936,0.0 
37.570812,50.205691,0.0 
37.583063,50.20933,0.0 
37.598374,50.212823,0.0 
37.58741,50.214405,0.0 
37.578263,50.216029,0.0 
37.570448,50.217563,0.0 
37.56348,50.218879,0.0 
37.556873,50.219843,0.0 
37.550143,50.220326,0.0 
37.542805,50.220196,0.0 
37.534374,50.219323,0.0 
37.524366,50.217574,0.0 
37.512864,50.214201,0.0 
37.502766,50.209445,0.0 
37.493926,50.203866,0.0 
37.4862,50.198024,0.0 
37.479442,50.192479,0.0 
37.473505,50.187793,0.0 
37.468243,50.184524,0.0 
37.46351,50.183233,0.0 
37.45916,50.18448,0.0 
37.454214,50.189049,0.0 
37.453238639353906,50.1907397511006,0.0 
</coordinates>
            </LinearRing>
          </outerBoundaryIs>
        </Polygon>
        <Polygon>
          <outerBoundaryIs>
            <LinearRing>
              <tessellate>1</tessellate>
              <coordinates>
              36.24966,50.29129,0.0 
36.247564,50.28985,0.0 
36.245512,50.288476,0.0 
36.243587,50.287174,0.0 
36.241873,50.285948,0.0 
36.240454,50.284803,0.0 
36.239413,50.283744,0.0 
36.238835,50.282776,0.0 
36.238803,50.281903,0.0 
36.2394,50.28113,0.0 
36.240697,50.280457,0.0 
36.242322,50.280125,0.0 
36.244266,50.280069,0.0 
36.246519,50.280221,0.0 
36.24907,50.280514,0.0 
36.251912,50.280882,0.0 
36.255033,50.281257,0.0 
36.258425,50.281573,0.0 
36.262078,50.281764,0.0 
36.265535,50.281776,0.0 
36.268433,50.281649,0.0 
36.270913,50.281447,0.0 
36.273112,50.281237,0.0 
36.275171,50.281086,0.0 
36.277226,50.28106,0.0 
36.279419,50.281224,0.0 
36.281887,50.281645,0.0 
36.28477,50.28239,0.0 
36.287137,50.283199,0.0 
36.288906,50.284032,0.0 
36.290229,50.284908,0.0 
36.291256,50.285847,0.0 
36.292135,50.286868,0.0 
36.293019,50.28799,0.0 
36.294055,50.289233,0.0 
36.295395,50.290615,0.0 
36.297188,50.292157,0.0 
36.295419,50.29127,0.0 
36.294036,50.29048,0.0 
36.292919,50.289775,0.0 
36.291951,50.28914,0.0 
36.291013,50.288559,0.0 
36.289985,50.288021,0.0 
36.28875,50.287509,0.0 
36.287188,50.28701,0.0 
36.28518,50.28651,0.0 
36.282319,50.285864,0.0 
36.279908,50.285322,0.0 
36.277819,50.284891,0.0 
36.275922,50.284576,0.0 
36.274088,50.284383,0.0 
36.272187,50.284317,0.0 
36.270089,50.284385,0.0 
36.267667,50.28459,0.0 
36.26479,50.28494,0.0 
36.262084,50.285341,0.0 
36.259538,50.285803,0.0 
36.257192,50.286331,0.0 
36.255089,50.286934,0.0 
36.25327,50.287617,0.0 
36.251776,50.288387,0.0 
36.250649,50.289252,0.0 
36.249929,50.290217,0.0 
36.24966,50.29129,0.0 
</coordinates>
            </LinearRing>
          </outerBoundaryIs>
        </Polygon>
        <Polygon>
          <outerBoundaryIs>
            <LinearRing>
              <tessellate>1</tessellate>
              <coordinates>
              34.250785,51.702532,0.0 
34.246388,51.703683,0.0 
34.242759,51.704798,0.0 
34.239695,51.705853,0.0 
34.23699,51.706822,0.0 
34.23444,51.707679,0.0 
34.231838,51.7084,0.0 
34.228981,51.708959,0.0 
34.225663,51.709331,0.0 
34.22168,51.70949,0.0 
34.219994,51.709388,0.0 
34.218735,51.709063,0.0 
34.217796,51.708542,0.0 
34.217069,51.707855,0.0 
34.216447,51.70703,0.0 
34.215824,51.706095,0.0 
34.215093,51.705079,0.0 
34.214145,51.704011,0.0 
34.212875,51.702918,0.0 
34.213895,51.702883,0.0 
34.214359,51.702588,0.0 
34.215161,51.702553,0.0 
34.215866,51.702482,0.0 
34.216685,51.702581,0.0 
34.217287,51.702524,0.0 
34.217522,51.702389,0.0 
34.218049,51.702457,0.0 
34.21837,51.702624,0.0 
34.218628,51.702652,0.0 
34.219023,51.702546,0.0 
34.219235,51.702585,0.0 
34.21947,51.702904,0.0 
34.219441,51.703085,0.0 
34.219682,51.703284,0.0 
34.220112,51.703178,0.0 
34.220685,51.702886,0.0 
34.220973,51.702776,0.0 
34.221361,51.702506,0.0 
34.221579,51.70217,0.0 
34.221868,51.701779,0.0 
34.22202,51.7017,0.0 
34.222498,51.701622,0.0 
34.222846,51.701503,0.0 
34.223366,51.701478,0.0 
34.223844,51.701467,0.0 
34.224264,51.701476,0.0 
34.224524,51.701351,0.0 
34.224625,51.701097,0.0 
34.224664,51.700706,0.0 
34.22476,51.700452,0.0 
34.224843,51.700319,0.0 
34.225035,51.700142,0.0 
34.225163,51.700072,0.0 
34.225427,51.700118,0.0 
34.225633,51.700147,0.0 
34.225724,51.700242,0.0 
34.225855,51.700363,0.0 
34.226054,51.700437,0.0 
34.226272,51.700479,0.0 
34.22667,51.700366,0.0 
34.227073,51.700365,0.0 
34.227758,51.700341,0.0 
34.228266,51.700334,0.0 
34.228646,51.700322,0.0 
34.228987,51.700206,0.0 
34.229097,51.700018,0.0 
34.229063,51.699858,0.0 
34.229007,51.699672,0.0 
34.229042,51.69952,0.0 
34.229272,51.699315,0.0 
34.229907,51.699058,0.0 
34.230885,51.698452,0.0 
34.231866,51.69777,0.0 
34.232054,51.697697,0.0 
34.2322,51.697677,0.0 
34.232459,51.697705,0.0 
34.232643,51.697705,0.0 
34.232812,51.697637,0.0 
34.233527,51.697071,0.0 
34.233696,51.696979,0.0 
34.233993,51.696959,0.0 
34.234228,51.696956,0.0 
34.23451,51.697021,0.0 
34.23478,51.69716,0.0 
34.235074,51.697286,0.0 
34.235372,51.697294,0.0 
34.235739,51.697262,0.0 
34.236184,51.697095,0.0 
34.23635,51.697079,0.0 
34.236482,51.697159,0.0 
34.236592,51.697382,0.0 
34.236709,51.697558,0.0 
34.236949,51.697667,0.0 
34.237295,51.697745,0.0 
34.238597,51.697962,0.0 
34.239173,51.698038,0.0 
34.239306,51.69811,0.0 
34.239416,51.698275,0.0 
34.239436,51.69848,0.0 
34.239513,51.698604,0.0 
34.239678,51.698735,0.0 
34.239993,51.698841,0.0 
34.240433,51.698952,0.0 
34.240724,51.699068,0.0 
34.241032,51.699232,0.0 
34.241249,51.699453,0.0 
34.24155,51.699652,0.0 
34.242282,51.699921,0.0 
34.243208,51.700134,0.0 
34.244082,51.70032,0.0 
34.244986,51.700439,0.0 
34.246301,51.700489,0.0 
34.246537,51.700552,0.0 
34.247485,51.701171,0.0 
34.248126,51.70148,0.0 
34.248662,51.701483,0.0 
34.248987,51.701492,0.0 
34.249157,51.701634,0.0 
34.249374,51.701874,0.0 
34.24972,51.702119,0.0 
34.250002,51.70224,0.0 
34.250496,51.702346,0.0 
34.250622,51.702461,0.0 
34.250785,51.702532,0.0 
              </coordinates>
            </LinearRing>
          </outerBoundaryIs>
        </Polygon>
</MultiGeometry>
    </Placemark>
    
    <Placemark>
      <name>продвижения ВСУ за 26 - 29 сентября</name>
      <description>ВСУ</description>
      <styleUrl>#poly-FFFFFF-180-77-nodesc</styleUrl>
      <MultiGeometry>
        <Polygon>
          <outerBoundaryIs>
            <LinearRing>
              <tessellate>1</tessellate>
              <coordinates>
              37.784752,49.151432,0.0 
37.791142,49.152755,0.0 
37.796323,49.153751,0.0 
37.800636,49.154528,0.0 
37.804422,49.155193,0.0 
37.808023,49.155854,0.0 
37.81178,49.156617,0.0 
37.816034,49.157589,0.0 
37.821127,49.158878,0.0 
37.8274,49.16059,0.0 
37.831328,49.16166,0.0 
37.834561,49.162501,0.0 
37.837275,49.163215,0.0 
37.839648,49.163903,0.0 
37.841859,49.164667,0.0 
37.844084,49.165607,0.0 
37.846503,49.166825,0.0 
37.849292,49.168422,0.0 
37.85263,49.1705,0.0 
37.854323,49.171875,0.0 
37.855449,49.17336,0.0 
37.856176,49.174903,0.0 
37.856673,49.176454,0.0 
37.857109,49.177961,0.0 
37.857654,49.179372,0.0 
37.858477,49.180636,0.0 
37.859746,49.181703,0.0 
37.86163,49.18252,0.0 
37.868562,49.184111,0.0 
37.87535,49.184864,0.0 
37.8790324789767,49.18495389930251,0.0 
37.874126,49.184928,0.0 
37.866902,49.184388,0.0 
37.85937,49.18312,0.0 
37.857427,49.182397,0.0 
37.856,49.181313,0.0 
37.854947,49.17999,0.0 
37.854125,49.178549,0.0 
37.853391,49.177113,0.0 
37.852601,49.175803,0.0 
37.851613,49.174741,0.0 
37.850284,49.17405,0.0 
37.84847,49.17385,0.0 
37.844319,49.174244,0.0 
37.840928,49.174999,0.0 
37.838066,49.176049,0.0 
37.835503,49.177326,0.0 
37.833008,49.178765,0.0 
37.830351,49.180297,0.0 
37.827302,49.181856,0.0 
37.82363,49.183375,0.0 
37.819105,49.184788,0.0 
37.813572,49.186338,0.0 
37.809071,49.187713,0.0 
37.805304,49.188904,0.0 
37.801974,49.189902,0.0 
37.79878,49.190697,0.0 
37.795425,49.191282,0.0 
37.79161,49.191647,0.0 
37.787037,49.191784,0.0 
37.781408,49.191683,0.0 
37.774504,49.19134,0.0 
37.768473,49.190832,0.0 
37.763154,49.19015,0.0 
37.758386,49.189284,0.0 
37.754009,49.188225,0.0 
37.749862,49.186963,0.0 
37.745786,49.185491,0.0 
37.741619,49.183797,0.0 
37.7372,49.181874,0.0 
37.736471,49.181369,0.0 
37.736479,49.180858,0.0 
37.737103,49.180333,0.0 
37.738223,49.179785,0.0 
37.739715,49.179206,0.0 
37.74146,49.178587,0.0 
37.743334,49.177919,0.0 
37.745218,49.177194,0.0 
37.74699,49.176403,0.0 
37.75006,49.174961,0.0 
37.7526,49.173894,0.0 
37.754753,49.173083,0.0 
37.756662,49.172408,0.0 
37.75847,49.17175,0.0 
37.760319,49.170989,0.0 
37.762352,49.170005,0.0 
37.764713,49.168679,0.0 
37.767544,49.166891,0.0 
37.77071,49.164861,0.0 
37.773784,49.162962,0.0 
37.776671,49.161172,0.0 
37.779277,49.159467,0.0 
37.781506,49.157825,0.0 
37.783263,49.156224,0.0 
37.784453,49.154639,0.0 
37.784981,49.15305,0.0 
37.784752,49.151432,0.0 
              </coordinates>
            </LinearRing>
          </outerBoundaryIs>
        </Polygon>
</MultiGeometry>
    </Placemark>
    
  </Document>
</kml>
