<?xml version="1.0" encoding="UTF-8"?>
<kml xmlns="http://www.opengis.net/kml/2.2">
  <Document>
    <name>Слой без названия</name>
    <Style id="poly-FFFFFF-180-77-nodesc-normal">
      <LineStyle>
        <color>ffffffff</color>
        <width>0.18</width>
      </LineStyle>
      <PolyStyle>
        <color>4dffffff</color>
        <fill>1</fill>
        <outline>1</outline>
      </PolyStyle>
      <BalloonStyle>
        <text><![CDATA[<h3>$[name]</h3>]]></text>
      </BalloonStyle>
    </Style>
    <Style id="poly-FFFFFF-180-77-nodesc-highlight">
      <LineStyle>
        <color>ffffffff</color>
        <width>0.27</width>
      </LineStyle>
      <PolyStyle>
        <color>4dffffff</color>
        <fill>1</fill>
        <outline>1</outline>
      </PolyStyle>
      <BalloonStyle>
        <text><![CDATA[<h3>$[name]</h3>]]></text>
      </BalloonStyle>
    </Style>
    <StyleMap id="poly-FFFFFF-180-77-nodesc">
      <Pair>
        <key>normal</key>
        <styleUrl>#poly-FFFFFF-180-77-nodesc-normal</styleUrl>
      </Pair>
      <Pair>
        <key>highlight</key>
        <styleUrl>#poly-FFFFFF-180-77-nodesc-highlight</styleUrl>
      </Pair>
    </StyleMap>
    
    <Placemark>
      <name>продвижения ВС РФ за 30 сентября - 3 октября</name>
      <description>ВС РФ</description>
      <styleUrl>#poly-FFFFFF-180-77-nodesc</styleUrl>
      <MultiGeometry>
        <Polygon>
          <outerBoundaryIs>
            <LinearRing>
              <tessellate>1</tessellate>
              <coordinates>
              37.656243,49.652247,0.0 
37.653226,49.652933,0.0 
37.65067,49.653524,0.0 
37.648473,49.654071,0.0 
37.646533,49.654625,0.0 
37.644751,49.655237,0.0 
37.643025,49.655959,0.0 
37.641253,49.656841,0.0 
37.639335,49.657934,0.0 
37.63717,49.65929,0.0 
37.637882,49.658081,0.0 
37.638563,49.657035,0.0 
37.639248,49.656129,0.0 
37.639976,49.655338,0.0 
37.64078,49.654638,0.0 
37.641699,49.654004,0.0 
37.642767,49.653413,0.0 
37.644022,49.65284,0.0 
37.6455,49.65226,0.0 
37.646939,49.651814,0.0 
37.648149,49.651604,0.0 
37.649201,49.651577,0.0 
37.650168,49.651679,0.0 
37.651122,49.651857,0.0 
37.652134,49.652057,0.0 
37.653277,49.652224,0.0 
37.654622,49.652305,0.0 
37.656243,49.652247,0.0 
</coordinates>
            </LinearRing>
          </outerBoundaryIs>
        </Polygon>
        <Polygon>
          <outerBoundaryIs>
            <LinearRing>
              <tessellate>1</tessellate>
              <coordinates>
              37.598374,50.212823,0.0 
37.583063,50.20933,0.0 
37.570812,50.205691,0.0 
37.560735,50.201936,0.0 
37.551945,50.198096,0.0 
37.543554,50.194201,0.0 
37.534676,50.19028,0.0 
37.524425,50.186364,0.0 
37.511915,50.182481,0.0 
37.49626,50.17866,0.0 
37.498415,50.178491,0.0 
37.500208,50.178293,0.0 
37.501733,50.178099,0.0 
37.503086,50.177945,0.0 
37.504359,50.177867,0.0 
37.505649,50.1779,0.0 
37.50705,50.17808,0.0 
37.508655,50.178441,0.0 
37.51056,50.17902,0.0 
37.523894,50.183806,0.0 
37.53456,50.188201,0.0 
37.543317,50.192263,0.0 
37.550925,50.196049,0.0 
37.558145,50.199616,0.0 
37.565739,50.203021,0.0 
37.574467,50.206319,0.0 
37.585091,50.209568,0.0 
37.598374,50.212823,0.0 
</coordinates>
            </LinearRing>
          </outerBoundaryIs>
        </Polygon>
        <Polygon>
          <outerBoundaryIs>
            <LinearRing>
              <tessellate>1</tessellate>
              <coordinates>
              36.28477,50.28239,0.0 
36.290651,50.281089,0.0 
36.295469,50.279489,0.0 
36.299497,50.277728,0.0 
36.303012,50.275943,0.0 
36.306288,50.274273,0.0 
36.309601,50.272854,0.0 
36.313225,50.271824,0.0 
36.317436,50.27132,0.0 
36.32251,50.27148,0.0 
36.326947,50.272165,0.0 
36.330379,50.273232,0.0 
36.33307,50.274647,0.0 
36.335286,50.276375,0.0 
36.337294,50.278382,0.0 
36.339357,50.280634,0.0 
36.341741,50.283096,0.0 
36.344713,50.285734,0.0 
36.348538,50.288513,0.0 
36.347663,50.288518,0.0 
36.346394,50.288568,0.0 
36.345155,50.288614,0.0 
36.343903,50.288704,0.0 
36.342664,50.288777,0.0 
36.341886,50.288822,0.0 
36.341097,50.288835,0.0 
36.340732,50.288849,0.0 
36.340437,50.288853,0.0 
36.339928,50.288883,0.0 
36.339021,50.28894,0.0 
36.338391,50.288957,0.0 
36.335979,50.289077,0.0 
36.33338,50.289199,0.0 
36.331213,50.289279,0.0 
36.330728,50.28929,0.0 
36.330095,50.2893,0.0 
36.329652,50.2893,0.0 
36.328922,50.289284,0.0 
36.328536,50.289286,0.0 
36.327318,50.289403,0.0 
36.326313,50.289494,0.0 
36.32366,50.28979,0.0 
36.320863,50.290179,0.0 
36.320244,50.290247,0.0 
36.31958,50.290315,0.0 
36.319087,50.29039,0.0 
36.318837,50.290456,0.0 
36.318616,50.290446,0.0 
36.318244,50.290486,0.0 
36.31791,50.29047,0.0 
36.316679,50.290574,0.0 
36.315523,50.2907,0.0 
36.313965,50.29087,0.0 
36.311899,50.291116,0.0 
36.310574,50.291192,0.0 
36.31027,50.291278,0.0 
36.309343,50.291412,0.0 
36.307632,50.291622,0.0 
36.30536,50.291848,0.0 
36.304367,50.291925,0.0 
36.303806,50.292033,0.0 
36.301781,50.292209,0.0 
36.298235,50.29216,0.0 
36.297672,50.292152,0.0 
36.297188,50.292157,0.0 
36.295395,50.290615,0.0 
36.294055,50.289233,0.0 
36.293019,50.28799,0.0 
36.292135,50.286868,0.0 
36.291256,50.285847,0.0 
36.290229,50.284908,0.0 
36.288906,50.284032,0.0 
36.287137,50.283199,0.0 
36.28477,50.28239,0.0 
</coordinates>
            </LinearRing>
          </outerBoundaryIs>
        </Polygon>
        <Polygon>
          <outerBoundaryIs>
            <LinearRing>
              <tessellate>1</tessellate>
              <coordinates>
              36.16444,50.32209,0.0 
36.164883,50.320351,0.0 
36.165453,50.318685,0.0 
36.166183,50.317138,0.0 
36.167104,50.315752,0.0 
36.168249,50.31457,0.0 
36.169651,50.313637,0.0 
36.171342,50.312995,0.0 
36.173354,50.312688,0.0 
36.17572,50.31276,0.0 
36.183,50.313846,0.0 
36.188952,50.315305,0.0 
36.19399,50.317055,0.0 
36.19750169984338,50.31856830356767,0.0 
36.193527,50.317619,0.0 
36.18738,50.31672,0.0 
36.183782,50.316416,0.0 
36.180455,50.316314,0.0 
36.177395,50.316425,0.0 
36.174599,50.316757,0.0 
36.172063,50.317321,0.0 
36.169782,50.318127,0.0 
36.167754,50.319184,0.0 
36.165975,50.320502,0.0 
36.16444,50.32209,0.0 
</coordinates>
            </LinearRing>
          </outerBoundaryIs>
        </Polygon>
        <Polygon>
          <outerBoundaryIs>
            <LinearRing>
              <tessellate>1</tessellate>
              <coordinates>
              35.39894,50.78464,0.0 
35.400147,50.783062,0.0 
35.401545,50.781735,0.0 
35.40301,50.7806,0.0 
35.404413,50.779597,0.0 
35.40563,50.778667,0.0 
35.406534,50.77775,0.0 
35.407,50.776788,0.0 
35.4069,50.775721,0.0 
35.40611,50.77449,0.0 
35.403292,50.772011,0.0 
35.400046,50.770227,0.0 
35.396506,50.768925,0.0 
35.392804,50.76789,0.0 
35.389073,50.766909,0.0 
35.385446,50.765769,0.0 
35.382058,50.764254,0.0 
35.37904,50.762152,0.0 
35.376527,50.759249,0.0 
35.37991,50.762179,0.0 
35.383987,50.764201,0.0 
35.388541,50.765551,0.0 
35.393357,50.766464,0.0 
35.398217,50.767176,0.0 
35.402907,50.767922,0.0 
35.407209,50.76894,0.0 
35.410908,50.770463,0.0 
35.413789,50.772729,0.0 
35.414532,50.774121,0.0 
35.414213,50.775318,0.0 
35.413033,50.776396,0.0 
35.411188,50.777431,0.0 
35.408878,50.7785,0.0 
35.406299,50.779679,0.0 
35.403651,50.781044,0.0 
35.401132,50.782673,0.0 
35.39894,50.78464,0.0 
</coordinates>
            </LinearRing>
          </outerBoundaryIs>
        </Polygon>
        <Polygon>
          <outerBoundaryIs>
            <LinearRing>
              <tessellate>1</tessellate>
              <coordinates>
              35.412643,50.813426,0.0 
35.408433,50.814046,0.0 
35.404861,50.814794,0.0 
35.401777,50.815587,0.0 
35.399032,50.816341,0.0 
35.396477,50.816972,0.0 
35.393962,50.817396,0.0 
35.391339,50.81753,0.0 
35.388458,50.817289,0.0 
35.38517,50.81659,0.0 
35.38199,50.815544,0.0 
35.379233,50.814265,0.0 
35.376891,50.812793,0.0 
35.374954,50.81117,0.0 
35.373413,50.809436,0.0 
35.372259,50.80763,0.0 
35.371484,50.805794,0.0 
35.371221603954616,50.80461386409144,0.0 
35.371575,50.80528,0.0 
35.372495,50.806348,0.0 
35.373748,50.807397,0.0 
35.375312,50.808402,0.0 
35.377165,50.809341,0.0 
35.379285,50.810189,0.0 
35.38165,50.810924,0.0 
35.385722,50.811919,0.0 
35.389165,50.812551,0.0 
35.392181,50.812899,0.0 
35.394972,50.813041,0.0 
35.397741,50.813056,0.0 
35.40069,50.813024,0.0 
35.404022,50.813022,0.0 
35.407939,50.81313,0.0 
35.412643,50.813426,0.0 
</coordinates>
            </LinearRing>
          </outerBoundaryIs>
        </Polygon>
        <Polygon>
          <outerBoundaryIs>
            <LinearRing>
              <tessellate>1</tessellate>
              <coordinates>
              35.110505,51.148501,0.0 
35.115571,51.150094,0.0 
35.12033,51.151407,0.0 
35.124821,51.152396,0.0 
35.129084,51.153016,0.0 
35.133158,51.153221,0.0 
35.137083,51.152966,0.0 
35.140899,51.152206,0.0 
35.144645,51.150896,0.0 
35.14836,51.14899,0.0 
35.152981,51.145792,0.0 
35.156095,51.142696,0.0 
35.15806,51.139603,0.0 
35.159233,51.136412,0.0 
35.159972,51.133024,0.0 
35.160634,51.129339,0.0 
35.161577,51.125256,0.0 
35.163156,51.120676,0.0 
35.165729,51.115498,0.0 
35.163613,51.121428,0.0 
35.162577,51.126763,0.0 
35.162228,51.131579,0.0 
35.162174,51.13595,0.0 
35.162021,51.139951,0.0 
35.161376,51.143657,0.0 
35.159845,51.147143,0.0 
35.157035,51.150483,0.0 
35.152551,51.153751,0.0 
35.148728,51.155559,0.0 
35.14475,51.156557,0.0 
35.140595,51.156835,0.0 
35.136235,51.156485,0.0 
35.131647,51.155598,0.0 
35.126805,51.154264,0.0 
35.121684,51.152577,0.0 
35.116259,51.150625,0.0 
35.110505,51.148501,0.0 
              </coordinates>
            </LinearRing>
          </outerBoundaryIs>
        </Polygon>
</MultiGeometry>
    </Placemark>
    
    <Placemark>
      <name>продвижения ВСУ за 30 сентября - 3 октября</name>
      <description>ВСУ</description>
      <styleUrl>#poly-FFFFFF-180-77-nodesc</styleUrl>
      <MultiGeometry>
        <Polygon>
          <outerBoundaryIs>
            <LinearRing>
              <tessellate>1</tessellate>
              <coordinates>
              37.84139,49.03149,0.0 
37.838077,49.028877,0.0 
37.833881,49.027239,0.0 
37.828893,49.026287,0.0 
37.823209,49.025732,0.0 
37.816922,49.025283,0.0 
37.810126,49.024653,0.0 
37.802913,49.02355,0.0 
37.795378,49.021687,0.0 
37.787615,49.018772,0.0 
37.794157,49.019963,0.0 
37.799687,49.0205,0.0 
37.804532,49.020506,0.0 
37.809016,49.020106,0.0 
37.813464,49.019424,0.0 
37.818201,49.018583,0.0 
37.823553,49.017707,0.0 
37.829844,49.016922,0.0 
37.8374,49.01635,0.0 
37.841141,49.016034,0.0 
37.84474,49.015538,0.0 
37.848129,49.014957,0.0 
37.851237,49.014388,0.0 
37.853995,49.013925,0.0 
37.856331,49.013667,0.0 
37.858178,49.013707,0.0 
37.859464,49.014143,0.0 
37.86012,49.01507,0.0 
37.86008,49.01643,0.0 
37.859324,49.017881,0.0 
37.85794,49.019433,0.0 
37.856016,49.021098,0.0 
37.85364,49.022886,0.0 
37.850902,49.024808,0.0 
37.847889,49.026875,0.0 
37.844688,49.029099,0.0 
37.84139,49.03149,0.0 
              </coordinates>
            </LinearRing>
          </outerBoundaryIs>
        </Polygon>
</MultiGeometry>
    </Placemark>
    
  </Document>
</kml>
