<?xml version="1.0" encoding="UTF-8"?>
<kml xmlns="http://www.opengis.net/kml/2.2">
  <Document>
    <name>Слой без названия</name>
    <Style id="poly-FFFFFF-180-77-nodesc-normal">
      <LineStyle>
        <color>ffffffff</color>
        <width>0.18</width>
      </LineStyle>
      <PolyStyle>
        <color>4dffffff</color>
        <fill>1</fill>
        <outline>1</outline>
      </PolyStyle>
      <BalloonStyle>
        <text><![CDATA[<h3>$[name]</h3>]]></text>
      </BalloonStyle>
    </Style>
    <Style id="poly-FFFFFF-180-77-nodesc-highlight">
      <LineStyle>
        <color>ffffffff</color>
        <width>0.27</width>
      </LineStyle>
      <PolyStyle>
        <color>4dffffff</color>
        <fill>1</fill>
        <outline>1</outline>
      </PolyStyle>
      <BalloonStyle>
        <text><![CDATA[<h3>$[name]</h3>]]></text>
      </BalloonStyle>
    </Style>
    <StyleMap id="poly-FFFFFF-180-77-nodesc">
      <Pair>
        <key>normal</key>
        <styleUrl>#poly-FFFFFF-180-77-nodesc-normal</styleUrl>
      </Pair>
      <Pair>
        <key>highlight</key>
        <styleUrl>#poly-FFFFFF-180-77-nodesc-highlight</styleUrl>
      </Pair>
    </StyleMap>
    
    <Placemark>
      <name>продвижения ВС РФ за 4 - 7 октября</name>
      <description>ВС РФ</description>
      <styleUrl>#poly-FFFFFF-180-77-nodesc</styleUrl>
      <MultiGeometry>
        <Polygon>
          <outerBoundaryIs>
            <LinearRing>
              <tessellate>1</tessellate>
              <coordinates>
              35.70304172617404,47.538576335113554,0.0 
35.702827,47.538905,0.0 
35.700682,47.541079,0.0 
35.698034,47.542481,0.0 
35.69468,47.54299,0.0 
35.69122,47.542396,0.0 
35.688548,47.540715,0.0 
35.686405,47.538164,0.0 
35.684535,47.534959,0.0 
35.68268,47.53132,0.0 
35.680582,47.527462,0.0 
35.677984,47.523603,0.0 
35.67463,47.51996,0.0 
35.67026,47.51675,0.0 
35.674843,47.519749,0.0 
35.678447,47.523116,0.0 
35.681319,47.526656,0.0 
35.683707,47.530178,0.0 
35.685858,47.533488,0.0 
35.68802,47.536393,0.0 
35.690439,47.5387,0.0 
35.693363,47.540217,0.0 
35.69704,47.54075,0.0 
35.700197,47.540282,0.0 
35.70264,47.538992,0.0 
35.70304172617404,47.538576335113554,0.0 
</coordinates>
            </LinearRing>
          </outerBoundaryIs>
        </Polygon>
        <Polygon>
          <outerBoundaryIs>
            <LinearRing>
              <tessellate>1</tessellate>
              <coordinates>
              36.05275,47.63983,0.0 
36.060396,47.636388,0.0 
36.066751,47.633008,0.0 
36.072157,47.629803,0.0 
36.076956,47.626889,0.0 
36.08149,47.624381,0.0 
36.0861,47.622393,0.0 
36.091129,47.621041,0.0 
36.096918,47.620439,0.0 
36.103808,47.620702,0.0 
36.108573,47.621624,0.0 
36.112959,47.623345,0.0 
36.116903,47.62574,0.0 
36.12034,47.62868,0.0 
36.123206,47.632038,0.0 
36.125437,47.635688,0.0 
36.126968,47.639501,0.0 
36.127736,47.643351,0.0 
36.127676,47.647111,0.0 
36.126801,47.650248,0.0 
36.125166,47.652728,0.0 
36.122838,47.654695,0.0 
36.119883,47.656294,0.0 
36.116366,47.657669,0.0 
36.112352,47.658964,0.0 
36.107909,47.660324,0.0 
36.1031,47.661892,0.0 
36.097993,47.663814,0.0 
36.086188,47.668252,0.0 
36.074827,47.671876,0.0 
36.07139998187233,47.67283157392362,0.0 
36.07905,47.66856,0.0 
36.081859,47.666508,0.0 
36.084344,47.664251,0.0 
36.08645,47.661851,0.0 
36.088123,47.659369,0.0 
36.089308,47.656867,0.0 
36.089951,47.654405,0.0 
36.089996,47.652046,0.0 
36.089391,47.649851,0.0 
36.08808,47.64788,0.0 
36.085297,47.645239,0.0 
36.082323,47.643176,0.0 
36.079118,47.64163,0.0 
36.075641,47.640542,0.0 
36.071851,47.63985,0.0 
36.067708,47.639493,0.0 
36.06317,47.639411,0.0 
36.058198,47.639544,0.0 
36.05275,47.63983,0.0 
</coordinates>
            </LinearRing>
          </outerBoundaryIs>
        </Polygon>
        <Polygon>
          <outerBoundaryIs>
            <LinearRing>
              <tessellate>1</tessellate>
              <coordinates>
              36.99676,48.30632,0.0 
36.999667,48.310377,0.0 
37.002607,48.313291,0.0 
37.005581,48.315379,0.0 
37.008592,48.316959,0.0 
37.011643,48.318349,0.0 
37.014736,48.319865,0.0 
37.017873,48.321825,0.0 
37.021057,48.324548,0.0 
37.02429,48.32835,0.0 
37.019945,48.326122,0.0 
37.015541,48.324945,0.0 
37.011133,48.324529,0.0 
37.006777,48.324588,0.0 
37.002528,48.324833,0.0 
36.99844,48.324976,0.0 
36.99457,48.324729,0.0 
36.990971,48.323803,0.0 
36.9877,48.32191,0.0 
36.986822,48.320706,0.0 
36.987016,48.319467,0.0 
36.988024,48.31815,0.0 
36.989589,48.316716,0.0 
36.991454,48.315121,0.0 
36.99336,48.313326,0.0 
36.995052,48.311288,0.0 
36.996271,48.308967,0.0 
36.99676,48.30632,0.0 
</coordinates>
            </LinearRing>
          </outerBoundaryIs>
        </Polygon>
        <Polygon>
          <outerBoundaryIs>
            <LinearRing>
              <tessellate>1</tessellate>
              <coordinates>
              37.09367734674521,48.42682961911977,0.0 
37.093376,48.428606,0.0 
37.09099,48.433773,0.0 
37.087592,48.43927,0.0 
37.083805,48.444689,0.0 
37.080251,48.449621,0.0 
37.077554,48.453658,0.0 
37.076336,48.456391,0.0 
37.07722,48.45741,0.0 
37.076572,48.457005,0.0 
37.076138,48.456445,0.0 
37.075895,48.455746,0.0 
37.075824,48.454928,0.0 
37.075903,48.454006,0.0 
37.076112,48.452997,0.0 
37.076428,48.451921,0.0 
37.076831,48.450792,0.0 
37.0773,48.44963,0.0 
37.079712,48.444943,0.0 
37.082613,48.440686,0.0 
37.085718,48.436837,0.0 
37.08874,48.433369,0.0 
37.091395,48.430259,0.0 
37.093397,48.427482,0.0 
37.09367734674521,48.42682961911977,0.0 
</coordinates>
            </LinearRing>
          </outerBoundaryIs>
        </Polygon>
        <Polygon>
          <outerBoundaryIs>
            <LinearRing>
              <tessellate>1</tessellate>
              <coordinates>
              37.07722,48.45741,0.0 
37.080582,48.456545,0.0 
37.084249,48.454096,0.0 
37.088299,48.450405,0.0 
37.092808,48.445814,0.0 
37.09785,48.440664,0.0 
37.103502,48.435296,0.0 
37.109841,48.430052,0.0 
37.116941,48.425273,0.0 
37.12488,48.4213,0.0 
37.119588,48.424954,0.0 
37.115518,48.428808,0.0 
37.112347,48.432843,0.0 
37.109752,48.437044,0.0 
37.107409,48.441395,0.0 
37.104994,48.445879,0.0 
37.102183,48.450478,0.0 
37.098653,48.455177,0.0 
37.09408,48.45996,0.0 
37.093392,48.460363,0.0 
37.092858,48.460211,0.0 
37.092425,48.459634,0.0 
37.09204,48.458763,0.0 
37.091649,48.457727,0.0 
37.0912,48.456659,0.0 
37.090639,48.455688,0.0 
37.089913,48.454945,0.0 
37.08897,48.45456,0.0 
37.087309,48.454499,0.0 
37.085791,48.454774,0.0 
37.084393,48.455281,0.0 
37.083091,48.455917,0.0 
37.081862,48.456579,0.0 
37.080684,48.457162,0.0 
37.079533,48.457564,0.0 
37.078386,48.457681,0.0 
37.07722,48.45741,0.0 
</coordinates>
            </LinearRing>
          </outerBoundaryIs>
        </Polygon>
        <Polygon>
          <outerBoundaryIs>
            <LinearRing>
              <tessellate>1</tessellate>
              <coordinates>
              37.800870142606854,48.7652852212142,0.0 
37.799977,48.767066,0.0 
37.798347,48.770015,0.0 
37.796901,48.772633,0.0 
37.795829,48.774871,0.0 
37.795323,48.776683,0.0 
37.795575,48.77802,0.0 
37.796775,48.778837,0.0 
37.79205,48.780168,0.0 
37.787346,48.781404,0.0 
37.782814,48.782499,0.0 
37.778606,48.783406,0.0 
37.774871,48.784077,0.0 
37.77176,48.784468,0.0 
37.769424,48.784529,0.0 
37.768014,48.784216,0.0 
37.76768,48.78348,0.0 
37.768576,48.782267,0.0 
37.770519,48.781005,0.0 
37.773353,48.779635,0.0 
37.776918,48.778098,0.0 
37.781059,48.776334,0.0 
37.785617,48.774282,0.0 
37.790435,48.771884,0.0 
37.795355,48.76908,0.0 
37.80022,48.76581,0.0 
37.800870142606854,48.7652852212142,0.0 
</coordinates>
            </LinearRing>
          </outerBoundaryIs>
        </Polygon>
        <Polygon>
          <outerBoundaryIs>
            <LinearRing>
              <tessellate>1</tessellate>
              <coordinates>
              37.218663,50.338735,0.0 
37.239627,50.338499,0.0 
37.259724,50.337285,0.0 
37.278628,50.3355,0.0 
37.296016,50.333553,0.0 
37.311567,50.331851,0.0 
37.324957,50.330803,0.0 
37.335865,50.330817,0.0 
37.34397,50.3323,0.0 
37.34895,50.33566,0.0 
37.349846,50.340031,0.0 
37.346555,50.344641,0.0 
37.339686,50.34958,0.0 
37.329852,50.354936,0.0 
37.317663,50.360797,0.0 
37.30373,50.367252,0.0 
37.288665,50.374388,0.0 
37.27308,50.382296,0.0 
37.257585,50.391064,0.0 
37.256036,50.392538,0.0 
37.226686,50.381238,0.0 
37.22178,50.379288,0.0 
37.222993,50.378062,0.0 
37.22249,50.37213,0.0 
37.222331,50.367255,0.0 
37.222369,50.363149,0.0 
37.222461,50.35953,0.0 
37.222462,50.35611,0.0 
37.222227,50.352606,0.0 
37.221612,50.348733,0.0 
37.220472,50.344204,0.0 
37.218663,50.338735,0.0 
              </coordinates>
            </LinearRing>
          </outerBoundaryIs>
        </Polygon>
</MultiGeometry>
    </Placemark>
    
    <Placemark>
      <name>продвижения ВСУ за 4 - 7 октября</name>
      <description>ВСУ</description>
      <styleUrl>#poly-FFFFFF-180-77-nodesc</styleUrl>
      <MultiGeometry>
        <Polygon>
          <outerBoundaryIs>
            <LinearRing>
              <tessellate>1</tessellate>
              <coordinates>
              36.71488,48.01342,0.0 
36.715387,48.012084,0.0 
36.715113,48.010995,0.0 
36.714228,48.010063,0.0 
36.712905,48.0092,0.0 
36.711312,48.008318,0.0 
36.709623,48.007326,0.0 
36.708007,48.006137,0.0 
36.706635,48.004661,0.0 
36.705679,48.00281,0.0 
36.70511,48.000713,0.0 
36.704883,47.998944,0.0 
36.704919,47.997402,0.0 
36.705136,47.995985,0.0 
36.705454,47.994593,0.0 
36.705793,47.993123,0.0 
36.706072,47.991476,0.0 
36.706211,47.989548,0.0 
36.70613,47.98724,0.0 
36.706069,47.986474,0.0 
36.706014,47.985797,0.0 
36.705941,47.9852,0.0 
36.70583,47.984673,0.0 
36.70566,47.984205,0.0 
36.705408,47.983787,0.0 
36.705054,47.983408,0.0 
36.704575,47.983059,0.0 
36.70395,47.98273,0.0 
36.704917,47.983068,0.0 
36.705671,47.983418,0.0 
36.706274,47.983774,0.0 
36.706788,47.984131,0.0 
36.707273,47.984482,0.0 
36.707792,47.984822,0.0 
36.708405,47.985144,0.0 
36.709174,47.985442,0.0 
36.71016,47.98571,0.0 
36.716856,47.986943,0.0 
36.723355,47.987711,0.0 
36.729511,47.988172,0.0 
36.73518,47.988484,0.0 
36.740215,47.988805,0.0 
36.744472,47.989294,0.0 
36.747806,47.990109,0.0 
36.75007,47.991408,0.0 
36.75112,47.99335,0.0 
36.750761,47.995493,0.0 
36.749031,47.997391,0.0 
36.746124,47.999159,0.0 
36.742235,48.000912,0.0 
36.737559,48.002762,0.0 
36.732291,48.004824,0.0 
36.726625,48.007212,0.0 
36.720756,48.010039,0.0 
36.71488,48.01342,0.0 
</coordinates>
            </LinearRing>
          </outerBoundaryIs>
        </Polygon>
        <Polygon>
          <outerBoundaryIs>
            <LinearRing>
              <tessellate>1</tessellate>
              <coordinates>
              37.86012,49.01507,0.0 
37.861608,49.015066,0.0 
37.863157,49.015055,0.0 
37.864682,49.015057,0.0 
37.866099,49.015093,0.0 
37.867324,49.015183,0.0 
37.868273,49.015349,0.0 
37.868862,49.015612,0.0 
37.869005,49.015992,0.0 
37.86862,49.01651,0.0 
37.866193,49.018453,0.0 
37.863759,49.020069,0.0 
37.861257,49.021469,0.0 
37.858626,49.022763,0.0 
37.855804,49.02406,0.0 
37.852731,49.025472,0.0 
37.849345,49.027107,0.0 
37.845585,49.029077,0.0 
37.84139,49.03149,0.0 
37.844688,49.029099,0.0 
37.847889,49.026875,0.0 
37.850902,49.024808,0.0 
37.85364,49.022886,0.0 
37.856016,49.021098,0.0 
37.85794,49.019433,0.0 
37.859324,49.017881,0.0 
37.86008,49.01643,0.0 
37.86012,49.01507,0.0 
              </coordinates>
            </LinearRing>
          </outerBoundaryIs>
        </Polygon>
</MultiGeometry>
    </Placemark>
    
  </Document>
</kml>
